OPTICUBE 04             
1 41851U 16067D   24234.52758454  .00007177  00000+0  53012-3 0  9999
2 41851  98.0837  42.2508 0017486 192.1082 167.9724 15.03447600425058
AEROCUBE 8D             
1 41852U 16067E   24234.43094582  .00015831  00000+0  99853-3 0  9994
2 41852  98.1119  47.2820 0004247 245.3763 114.7022 15.09202686425233
AEROCUBE 8C             
1 41853U 16067F   24234.44636765  .00015462  00000+0  97571-3 0  9996
2 41853  98.0931  45.7161 0007678 174.6808 185.4502 15.09175242425225
PROMETHEUS 2-1          
1 41854U 16067G   24234.47186033  .00035550  00000+0  16378-2 0  9993
2 41854  98.1014  54.2406 0011772 193.1014 166.9915 15.20138840425645
PROMETHEUS 2-3          
1 41855U 16067H   24234.46975853  .00035734  00000+0  16493-2 0  9991
2 41855  98.0947  53.6635 0010015 202.8391 157.2398 15.20091190425646
AALTO-1                 
1 42775U 17036L   24234.62159919  .00718794  23828-3  14261-2 0  9997
2 42775  97.0847 266.0983 0005191 212.6534 147.4424 15.99953917399437
CORVUS BC2              
1 42846U 17042X   24234.44846236  .00008937  00000+0  75098-3 0  9998
2 42846  97.3746  55.9483 0008124 187.0836 173.0274 14.98488620387219
CORVUS BC1              
1 42847U 17042Y   24234.46951877  .00009230  00000+0  77206-3 0  9999
2 42847  97.3769  56.3801 0007341 182.6372 177.4814 14.98662702387235
MIRATA                  
1 43015U 17073C   24234.64065422  .00044195  00000+0  18936-2 0  9996
2 43015  97.5844 118.7428 0160475  37.4972 323.7324 15.11657382366208
MAKERSAT 0              
1 43016U 17073D   24234.63358355  .00026247  00000+0  14147-2 0  9994
2 43016  97.5706 111.8550 0189844  61.4879 300.5315 15.00542977365720
GOMX-4B                 
1 43196U 18015E   24234.46412920  .00187258  00000+0  11048-2 0  9997
2 43196  97.6030  53.6547 0003513  59.0637 301.0973 15.77621594365769
SIRION PATHFINDER-2     
1 43759U 18099B   24234.72729553  .00009740  00000+0  71085-3 0  9993
2 43759  97.5223 289.0511 0012264  69.4014 290.8527 15.03829998312354
CORVUS BC4              
1 43767U 18099K   24234.85873227  .00008938  00000+0  66631-3 0  9993
2 43767  97.5069 286.1892 0012301 116.7267 243.5219 15.03049146312250
MOVE-II                 
1 43780U 18099Y   24234.63739642  .00041220  00000+0  19188-2 0  9991
2 43780  97.5156 297.1554 0007062 114.8569 245.3401 15.19780777312859
SPACEBEE-7              
1 43816U 18099BL  24234.75512144  .00026706  00000+0  14558-2 0  9998
2 43816  97.5428 297.7467 0009992  68.4453 291.7843 15.14316609312321
SPACEBEE-6              
1 43818U 18099BN  24234.84882573  .00073904  00000+0  25203-2 0  9997
2 43818  97.5348 304.4616 0006367  64.0723 296.1173 15.30049782312925
SHIELDS 1               
1 43850U 18104B   24234.47484077  .00023816  00000+0  59007-3 0  9993
2 43850  85.0184 238.7139 0011150 169.8203 190.3276 15.40205163316205
SONATE                  
1 44400U 19038Q   24234.48672110  .00037949  00000+0  10106-2 0  9998
2 44400  97.7140 231.6711 0013314 222.2794 137.7424 15.38006530284107
LUCKY-7                 
1 44406U 19038W   24234.54686394  .00085039  00000+0  14052-2 0  9997
2 44406  97.7022 236.9426 0011718 193.3491 166.7452 15.51866366284470
DUCHIFAT-3              
1 44854U 19089C   24234.71735313  .00031404  00000+0  14488-2 0  9995
2 44854  36.9573  10.3760 0006055 298.8302  61.1838 15.19388735258232
M2 PATHFINDER           
1 45727U 20037E   24234.47010555  .00007216  00000+0  61735-3 0  9999
2 45727  97.7802  50.6012 0010191 267.3533  92.6523 14.97872325225717
NETSAT-4                
1 46504U 20068U   24234.94262622  .00017284  00000+0  87466-3 0  9998
2 46504  97.8106 193.9560 0011913 128.9996 231.2299 15.17028965214137
NETSAT-3                
1 46505U 20068V   24234.82131938  .00019189  00000+0  98764-3 0  9990
2 46505  97.8080 193.2532 0011031 135.9306 224.2807 15.16418370214101
NETSAT-1                
1 46506U 20068W   24234.88289717  .00014520  00000+0  79160-3 0  9999
2 46506  97.8105 192.6240 0009479 144.1216 216.0653 15.14457655214064
NETSAT-2                
1 46507U 20068X   24234.83032234  .00018290  00000+0  92712-3 0  9991
2 46507  97.8090 193.4515 0008584 145.4715 214.7076 15.16986537214068
WILDTRACKCUBE-SIMBA     
1 47941U 21022K   24234.95919031  .00026035  00000+0  10706-2 0  9995
2 47941  97.4504 131.2145 0011964 272.5842  87.4026 15.24075630188472
GRBALPHA                
1 47959U 21022AD  24234.92721431  .00040157  00000+0  13874-2 0  9996
2 47959  97.4506 133.5152 0010008 259.7779 100.2333 15.29770999187446
BCCSAT-1                
1 48041U 21022AK  24234.81467639  .00315347  00000+0  25650-2 0  9995
2 48041  97.4480 144.9104 0009348 152.2992 207.8770 15.69682757188147
BEESAT-8                
1 48085U 21022AP  24234.67408877  .00053584  00000+0  14303-2 0  9991
2 48085  97.4699 137.6298 0007893 236.5617 123.4873 15.37909315187922
LEDSAT                  
1 49069U 21073D   24234.75224625  .00033899  00000+0  12324-2 0  9994
2 49069  97.4324 305.5547 0018210  55.3516 304.9437 15.28030195166451
ROBUSTA-1F (MTCUBE 2)   
1 53109U 22080E   24234.77298734 -.00000003  00000+0  00000+0 0  9994
2 53109  70.1270 169.3199 0007795  73.7371 286.4145  6.42584294 49378
SITRO-AIS 5 (KATYS)     
1 57176U 23091L   24234.93156165  .00014804  00000+0  91061-3 0  9998
2 57176  97.6068 286.5931 0015745 254.1631 105.7863 15.10029460 63414
SITRO-AIS 6 (CHIRKIN)   
1 57192U 23091AC  24234.91422617  .00014871  00000+0  91348-3 0  9994
2 57192  97.6059 286.6046 0015782 254.1979 105.7510 15.10076733 63410
SITRO-AIS 8 (ANOKHIN)   
1 57193U 23091AD  24234.93251341  .00015580  00000+0  94560-3 0  9998
2 57193  97.6064 286.7245 0015304 254.5938 105.3601 15.10511812 63428
SITRO-AIS 7 (FARTUSHNIY)
1 57194U 23091AE  24234.92141054  .00014337  00000+0  88232-3 0  9995
2 57194  97.6061 286.5874 0015559 254.7140 105.2369 15.10020387 63412
SITRO-AIS 10 (BURDAEV)  
1 57199U 23091AK  24234.95421739  .00018421  00000+0  10596-2 0  9999
2 57199  97.6081 287.8484 0010948 239.8346 120.1800 15.12463988 63493
SITRO-AIS 9 (SHCHUKIN)  
1 57201U 23091AM  24234.88725698  .00017957  00000+0  10339-2 0  9994
2 57201  97.6075 287.7561 0010899 239.9961 120.0188 15.12435698 63488
SITRO-AIS 12 (SMIRENNIY)
1 57204U 23091AQ  24234.90752950  .00018056  00000+0  10340-2 0  9994
2 57204  97.6079 287.9340 0011039 233.9013 126.1196 15.12628442 63499
SITRO-AIS 11 (SHEFFER)  
1 57208U 23091AU  24234.88927184  .00018380  00000+0  10493-2 0  9997
2 57208  97.6082 287.9457 0010800 233.9525 126.0706 15.12737344 63497
ROBUSTA-1E (ENSO)       
1 58470U 23185J   24234.90179583  .00030661  00000+0  11771-2 0  9994
2 58470  97.4207 301.0351 0012135  53.0348 307.2000 15.26338217 40153
SITRO-AIS 29            
1 59052U 24039B   24234.90590419  .00046634  00000+0  14949-2 0  9992
2 59052  97.3959 196.5533 0014453 356.6189   3.4953 15.32103387 26647
SITRO-AIS 30            
1 59053U 24039C   24234.90890091  .00045202  00000+0  14559-2 0  9999
2 59053  97.3957 196.5440 0014701 357.1233   2.9921 15.31955289 26638
SITRO-AIS 31            
1 59054U 24039D   24234.89573971  .00046131  00000+0  14764-2 0  9993
2 59054  97.3958 196.5626 0014515 357.4039   2.7125 15.32156815 26651
SITRO-AIS 33            
1 59055U 24039E   24234.94714071  .00046567  00000+0  14843-2 0  9999
2 59055  97.3961 196.6539 0014288 358.3708   1.7485 15.32288314 26658
SITRO-AIS 35            
1 59056U 24039F   24234.94257651  .00043510  00000+0  13877-2 0  9997
2 59056  97.3960 196.6563 0014180 358.9157   1.2051 15.32286847 26653
SITRO-AIS 32            
1 59057U 24039G   24234.88940438  .00043865  00000+0  14053-2 0  9993
2 59057  97.3962 196.5774 0014233 358.9830   1.1380 15.32140813 26641
SITRO-AIS 34            
1 59058U 24039H   24234.88293974  .00046184  00000+0  14730-2 0  9999
2 59058  97.3961 196.5888 0014294 358.8842   1.2365 15.32270691 26648
SITRO-AIS 36            
1 59059U 24039J   24234.93547510  .00046160  00000+0  14665-2 0  9995
2 59059  97.3960 196.6661 0013897 358.9321   1.1888 15.32401235 26659
SITRO-AIS 49            
1 59060U 24039K   24234.93798208  .00044238  00000+0  14104-2 0  9991
2 59060  97.3960 196.6631 0013956 358.3607   1.7587 15.32297677 26650
SITRO-AIS 50            
1 59061U 24039L   24234.92174156  .00044967  00000+0  14234-2 0  9994
2 59061  97.3958 196.6834 0013824 358.5917   1.5284 15.32525419 26653
SITRO-AIS 51            
1 59062U 24039M   24234.92163311  .00045536  00000+0  14406-2 0  9990
2 59062  97.3959 196.6829 0013808 358.8545   1.2662 15.32540360 26650
SITRO-AIS 52            
1 59063U 24039N   24234.91126996  .00046483  00000+0  14651-2 0  9992
2 59063  97.3960 196.6993 0013694 358.7821   1.3385 15.32655489 26656
SITRO-AIS 25            
1 59066U 24039R   24234.91853238  .00009578  00000+0  89313-3 0  9993
2 59066  95.3986 141.9014 0171569 116.4669 245.4266 14.83744620 25858
SITRO-AIS 26            
1 59067U 24039S   24234.91962777  .00009246  00000+0  86360-3 0  9994
2 59067  95.3986 141.8995 0171513 116.5028 245.3896 14.83693563 25852
SITRO-AIS 27            
1 59068U 24039T   24234.90269890  .00010302  00000+0  95792-3 0  9994
2 59068  95.3988 141.9193 0171143 116.3417 245.5492 14.83887729 25858
SITRO-AIS 28            
1 59071U 24039U   24234.89828295  .00010327  00000+0  95968-3 0  9998
2 59071  95.3988 141.9251 0170990 116.3214 245.5682 14.83928587 25850
GRBBETA                 
1 60237U 24128C   24234.94391076  .00009495  00000+0  82617-3 0  9992
2 60237  61.9963  12.6198 0013553 318.6963  41.3099 14.97421042  6448
OOV-CUBE (TUBSAT-30)    
1 60240U 24128F   24234.82741994  .00006596  00000+0  58991-3 0  9998
2 60240  61.9998  13.1821 0012094 305.8439  54.1526 14.96722199  6436
ROBUSTA-3A (MEDITERRAN*)
1 60243U 24128J   24234.70758405  .00014428  00000+0  12744-2 0  9991
2 60243  61.9936  13.6700 0014061 293.1861  66.7745 14.96525657  6416
